{
  "type": "FeatureCollection",
  "features": [
    {
      "type": "Feature",
      "properties": {
        "norad_id": 34314,
        "name": "COSMOS 2251 DEB",
        "group": "cosmos-2251-debris",
        "lat": 36.43244788140414,
        "lon": -33.14636685474778,
        "alt_km": 762.8473257922024,
        "timestamp": "2025-12-09T05:43:21.120398+00:00",
        "meta_object_name": "COSMOS 2251 DEB",
        "meta_object_id": "1993-036NL",
        "meta_epoch": "2025-12-08T17:59:09.926016",
        "meta_mean_motion": 14.17410604,
        "meta_eccentricity": 0.0102712,
        "meta_inclination": 74.007,
        "meta_ra_of_asc_node": 315.5042,
        "meta_arg_of_pericenter": 62.1805,
        "meta_mean_anomaly": 2.1952,
        "meta_ephemeris_type": 0,
        "meta_classification_type": "U",
        "meta_norad_cat_id": 34314,
        "meta_element_set_no": 999,
        "meta_rev_at_epoch": 86601,
        "meta_bstar": 0.0011553,
        "meta_mean_motion_dot": 2.44e-05,
        "meta_mean_motion_ddot": 0,
        "tle_line1": "1 34314U 93036NL  25342.74942044  .00002440  00000+0  11553-2 0  9992",
        "tle_line2": "2 34314  74.0070 315.5042 0102712  62.1805   2.1952 14.17410604866018"
      },
      "geometry": {
        "type": "Point",
        "coordinates": [
          -33.14636685474778,
          36.43244788140414
        ]
      }
    },
    {
      "type": "Feature",
      "properties": {
        "norad_id": 34316,
        "name": "COSMOS 2251 DEB",
        "group": "cosmos-2251-debris",
        "lat": 13.469572964638784,
        "lon": -12.173693305718059,
        "alt_km": 590.3507373536559,
        "timestamp": "2025-12-09T05:43:21.120408+00:00",
        "meta_object_name": "COSMOS 2251 DEB",
        "meta_object_id": "1993-036NN",
        "meta_epoch": "2025-12-08T10:20:39.026400",
        "meta_mean_motion": 14.91626759,
        "meta_eccentricity": 0.00080718,
        "meta_inclination": 74.0659,
        "meta_ra_of_asc_node": 345.5186,
        "meta_arg_of_pericenter": 71.6638,
        "meta_mean_anomaly": 288.5422,
        "meta_ephemeris_type": 0,
        "meta_classification_type": "U",
        "meta_norad_cat_id": 34316,
        "meta_element_set_no": 999,
        "meta_rev_at_epoch": 89145,
        "meta_bstar": 0.0020361205,
        "meta_mean_motion_dot": 0.00020489,
        "meta_mean_motion_ddot": 0,
        "tle_line1": "1 34316U 93036NN  25342.43100725  .00020489  00000+0  20361-2 0  9992",
        "tle_line2": "2 34316  74.0659 345.5186 0008071  71.6638 288.5422 14.91626759891457"
      },
      "geometry": {
        "type": "Point",
        "coordinates": [
          -12.173693305718059,
          13.469572964638784
        ]
      }
    },
    {
      "type": "Feature",
      "properties": {
        "norad_id": 34317,
        "name": "COSMOS 2251 DEB",
        "group": "cosmos-2251-debris",
        "lat": -73.87672423073107,
        "lon": -44.39272655315693,
        "alt_km": 1143.4214066778386,
        "timestamp": "2025-12-09T05:43:21.120419+00:00",
        "meta_object_name": "COSMOS 2251 DEB",
        "meta_object_id": "1993-036NP",
        "meta_epoch": "2025-12-08T14:54:33.681024",
        "meta_mean_motion": 13.65116838,
        "meta_eccentricity": 0.033639,
        "meta_inclination": 73.9248,
        "meta_ra_of_asc_node": 42.5379,
        "meta_arg_of_pericenter": 32.5997,
        "meta_mean_anomaly": 89.78,
        "meta_ephemeris_type": 0,
        "meta_classification_type": "U",
        "meta_norad_cat_id": 34317,
        "meta_element_set_no": 999,
        "meta_rev_at_epoch": 83563,
        "meta_bstar": 0.0006279,
        "meta_mean_motion_dot": 7.27e-06,
        "meta_mean_motion_ddot": 0,
        "tle_line1": "1 34317U 93036NP  25342.62122316  .00000727  00000+0  62790-3 0  9990",
        "tle_line2": "2 34317  73.9248  42.5379 0336390  32.5997  89.7800 13.65116838835631"
      },
      "geometry": {
        "type": "Point",
        "coordinates": [
          -44.39272655315693,
          -73.87672423073107
        ]
      }
    },
    {
      "type": "Feature",
      "properties": {
        "norad_id": 34321,
        "name": "COSMOS 2251 DEB",
        "group": "cosmos-2251-debris",
        "lat": -30.16290126702417,
        "lon": 153.35895103070322,
        "alt_km": 722.0855889487129,
        "timestamp": "2025-12-09T05:43:21.120429+00:00",
        "meta_object_name": "COSMOS 2251 DEB",
        "meta_object_id": "1993-036NT",
        "meta_epoch": "2025-12-08T20:28:09.695136",
        "meta_mean_motion": 14.50031326,
        "meta_eccentricity": 0.0015744,
        "meta_inclination": 74.028,
        "meta_ra_of_asc_node": 163.6641,
        "meta_arg_of_pericenter": 293.4228,
        "meta_mean_anomaly": 183.2731,
        "meta_ephemeris_type": 0,
        "meta_classification_type": "U",
        "meta_norad_cat_id": 34321,
        "meta_element_set_no": 999,
        "meta_rev_at_epoch": 88430,
        "meta_bstar": 0.0010087,
        "meta_mean_motion_dot": 3.889e-05,
        "meta_mean_motion_ddot": 0,
        "tle_line1": "1 34321U 93036NT  25342.85288999  .00003889  00000+0  10087-2 0  9993",
        "tle_line2": "2 34321  74.0280 163.6641 0015744 293.4228 183.2731 14.50031326884307"
      },
      "geometry": {
        "type": "Point",
        "coordinates": [
          153.35895103070322,
          -30.16290126702417
        ]
      }
    },
    {
      "type": "Feature",
      "properties": {
        "norad_id": 34323,
        "name": "COSMOS 2251 DEB",
        "group": "cosmos-2251-debris",
        "lat": 35.71004444433669,
        "lon": 141.92509827004756,
        "alt_km": 675.6041208699535,
        "timestamp": "2025-12-09T05:43:21.120440+00:00",
        "meta_object_name": "COSMOS 2251 DEB",
        "meta_object_id": "1993-036NV",
        "meta_epoch": "2025-12-08T20:30:14.519808",
        "meta_mean_motion": 14.74215276,
        "meta_eccentricity": 0.0059851,
        "meta_inclination": 73.9532,
        "meta_ra_of_asc_node": 130.7377,
        "meta_arg_of_pericenter": 175.6876,
        "meta_mean_anomaly": 344.586,
        "meta_ephemeris_type": 0,
        "meta_classification_type": "U",
        "meta_norad_cat_id": 34323,
        "meta_element_set_no": 999,
        "meta_rev_at_epoch": 88382,
        "meta_bstar": 0.0043794,
        "meta_mean_motion_dot": 0.00029872,
        "meta_mean_motion_ddot": 0,
        "tle_line1": "1 34323U 93036NV  25342.85433472  .00029872  00000+0  43794-2 0  9994",
        "tle_line2": "2 34323  73.9532 130.7377 0059851 175.6876 344.5860 14.74215276883820"
      },
      "geometry": {
        "type": "Point",
        "coordinates": [
          141.92509827004756,
          35.71004444433669
        ]
      }
    },
    {
      "type": "Feature",
      "properties": {
        "norad_id": 34325,
        "name": "COSMOS 2251 DEB",
        "group": "cosmos-2251-debris",
        "lat": 49.298086137491204,
        "lon": -141.3665007986719,
        "alt_km": 1008.3799955890072,
        "timestamp": "2025-12-09T05:43:21.120450+00:00",
        "meta_object_name": "COSMOS 2251 DEB",
        "meta_object_id": "1993-036NX",
        "meta_epoch": "2025-12-08T16:04:32.181024",
        "meta_mean_motion": 14.04436417,
        "meta_eccentricity": 0.0192658,
        "meta_inclination": 73.8715,
        "meta_ra_of_asc_node": 199.9782,
        "meta_arg_of_pericenter": 218.139,
        "meta_mean_anomaly": 200.7891,
        "meta_ephemeris_type": 0,
        "meta_classification_type": "U",
        "meta_norad_cat_id": 34325,
        "meta_element_set_no": 999,
        "meta_rev_at_epoch": 85458,
        "meta_bstar": 0.0026265,
        "meta_mean_motion_dot": 4.916e-05,
        "meta_mean_motion_ddot": 0,
        "tle_line1": "1 34325U 93036NX  25342.66981691  .00004916  00000+0  26265-2 0  9992",
        "tle_line2": "2 34325  73.8715 199.9782 0192658 218.1390 200.7891 14.04436417854581"
      },
      "geometry": {
        "type": "Point",
        "coordinates": [
          -141.3665007986719,
          49.298086137491204
        ]
      }
    },
    {
      "type": "Feature",
      "properties": {
        "norad_id": 34327,
        "name": "COSMOS 2251 DEB",
        "group": "cosmos-2251-debris",
        "lat": -57.8406469441901,
        "lon": 26.064014257066546,
        "alt_km": 616.8936961458148,
        "timestamp": "2025-12-09T05:43:21.120461+00:00",
        "meta_object_name": "COSMOS 2251 DEB",
        "meta_object_id": "1993-036NZ",
        "meta_epoch": "2025-12-08T16:05:14.636256",
        "meta_mean_motion": 14.8904141,
        "meta_eccentricity": 0.0032545,
        "meta_inclination": 73.9935,
        "meta_ra_of_asc_node": 180.0358,
        "meta_arg_of_pericenter": 357.1985,
        "meta_mean_anomaly": 80.5881,
        "meta_ephemeris_type": 0,
        "meta_classification_type": "U",
        "meta_norad_cat_id": 34327,
        "meta_element_set_no": 999,
        "meta_rev_at_epoch": 89447,
        "meta_bstar": 0.0015063,
        "meta_mean_motion_dot": 0.0001432,
        "meta_mean_motion_ddot": 0,
        "tle_line1": "1 34327U 93036NZ  25342.67030829  .00014320  00000+0  15063-2 0  9997",
        "tle_line2": "2 34327  73.9935 180.0358 0032545 357.1985  80.5881 14.89041410894473"
      },
      "geometry": {
        "type": "Point",
        "coordinates": [
          26.064014257066546,
          -57.8406469441901
        ]
      }
    }
  ]
}